{"type": "FeatureCollection", "features": [ {"type": "Feature", "properties": {"norad_id": 43058, "name": "GSAT0218 (GALILEO 22)", "group": "galileo", "lat": -23.284751359170503, "lon": 64.13066283326378, "alt_km": 23226.404581851402, "timestamp": "2025-12-11T05:00:26.571835+00:00", "meta": {"OBJECT_NAME": "GSAT0218 (GALILEO 22)", "OBJECT_ID": "2017-079D", "EPOCH": "2025-12-09T02:36:28.325952", "MEAN_MOTION": 1.70473942, "ECCENTRICITY": 0.00028125, "INCLINATION": 55.1298, "RA_OF_ASC_NODE": 226.7335, "ARG_OF_PERICENTER": 306.3632, "MEAN_ANOMALY": 53.6978, "EPHEMERIS_TYPE": 0, "CLASSIFICATION_TYPE": "U", "NORAD_CAT_ID": 43058, "ELEMENT_SET_NO": 999, "REV_AT_EPOCH": 4977, "BSTAR": 0, "MEAN_MOTION_DOT": 1.2e-07, "MEAN_MOTION_DDOT": 0}, "tle": {"line1": "1 43058U 17079D   25343.10866118  .00000012  00000+0  00000+0 0  9993", "line2": "2 43058  55.1298 226.7335 0002812 306.3632  53.6978  1.70473942 49778"}}, "geometry": {"type": "Point", "coordinates": [64.13066283326378, -23.284751359170503]}}, {"type": "Feature", "properties": {"norad_id": 43564, "name": "GSAT0221 (GALILEO 25)", "group": "galileo", "lat": -57.18052118291145, "lon": -105.88234392860016, "alt_km": 23208.74490827287, "timestamp": "2025-12-11T05:00:26.571849+00:00", "meta": {"OBJECT_NAME": "GSAT0221 (GALILEO 25)", "OBJECT_ID": "2018-060A", "EPOCH": "2025-12-10T18:30:15.068736", "MEAN_MOTION": 1.70475777, "ECCENTRICITY": 0.00067151, "INCLINATION": 57.2282, "RA_OF_ASC_NODE": 346.8706, "ARG_OF_PERICENTER": 282.7382, "MEAN_ANOMALY": 77.2035, "EPHEMERIS_TYPE": 0, "CLASSIFICATION_TYPE": "U", "NORAD_CAT_ID": 43564, "ELEMENT_SET_NO": 999, "REV_AT_EPOCH": 4595, "BSTAR": 0, "MEAN_MOTION_DOT": -8.7e-07, "MEAN_MOTION_DDOT": 0}, "tle": {"line1": "1 43564U 18060A   25344.77100774 -.00000087  00000+0  00000+0 0  9992", "line2": "2 43564  57.2282 346.8706 0006715 282.7382  77.2035  1.70475777 45957"}}, "geometry": {"type": "Point", "coordinates": [-105.88234392860016, -57.18052118291145]}}, {"type": "Feature", "properties": {"norad_id": 43565, "name": "GSAT0222 (GALILEO 26)", "group": "galileo", "lat": 37.29229257784452, "lon": 137.48402223404972, "alt_km": 23228.990398261118, "timestamp": "2025-12-11T05:00:26.571862+00:00", "meta": {"OBJECT_NAME": "GSAT0222 (GALILEO 26)", "OBJECT_ID": "2018-060B", "EPOCH": "2025-12-09T05:32:02.497344", "MEAN_MOTION": 1.7047545, "ECCENTRICITY": 0.00061659, "INCLINATION": 57.2321, "RA_OF_ASC_NODE": 346.9153, "ARG_OF_PERICENTER": 262.6798, "MEAN_ANOMALY": 97.2666, "EPHEMERIS_TYPE": 0, "CLASSIFICATION_TYPE": "U", "NORAD_CAT_ID": 43565, "ELEMENT_SET_NO": 999, "REV_AT_EPOCH": 4597, "BSTAR": 0, "MEAN_MOTION_DOT": -8.7e-07, "MEAN_MOTION_DDOT": 0}, "tle": {"line1": "1 43565U 18060B   25343.23058446 -.00000087  00000+0  00000+0 0  9991", "line2": "2 43565  57.2321 346.9153 0006165 262.6798  97.2666  1.70475450 45978"}}, "geometry": {"type": "Point", "coordinates": [137.48402223404972, 37.29229257784452]}}, {"type": "Feature", "properties": {"norad_id": 43566, "name": "GSAT0219 (GALILEO 23)", "group": "galileo", "lat": -1.4718013708819018, "lon": -14.086039335464775, "alt_km": 23217.282461355317, "timestamp": "2025-12-11T05:00:26.571873+00:00", "meta": {"OBJECT_NAME": "GSAT0219 (GALILEO 23)", "OBJECT_ID": "2018-060C", "EPOCH": "2025-12-07T16:36:27.181728", "MEAN_MOTION": 1.7047564, "ECCENTRICITY": 0.00057893, "INCLINATION": 57.2316, "RA_OF_ASC_NODE": 346.9585, "ARG_OF_PERICENTER": 285.9629, "MEAN_ANOMALY": 73.992, "EPHEMERIS_TYPE": 0, "CLASSIFICATION_TYPE": "U", "NORAD_CAT_ID": 43566, "ELEMENT_SET_NO": 999, "REV_AT_EPOCH": 4592, "BSTAR": 0, "MEAN_MOTION_DOT": -8.4e-07, "MEAN_MOTION_DDOT": 0}, "tle": {"line1": "1 43566U 18060C   25341.69198127 -.00000084  00000+0  00000+0 0  9998", "line2": "2 43566  57.2316 346.9585 0005789 285.9629  73.9920  1.70475640 45924"}}, "geometry": {"type": "Point", "coordinates": [-14.086039335464775, -1.4718013708819018]}}, {"type": "Feature", "properties": {"norad_id": 43567, "name": "GSAT0220 (GALILEO 24)", "group": "galileo", "lat": -34.663694746649256, "lon": -166.68801659075726, "alt_km": 23217.44678861524, "timestamp": "2025-12-11T05:00:26.571883+00:00", "meta": {"OBJECT_NAME": "GSAT0220 (GALILEO 24)", "OBJECT_ID": "2018-060D", "EPOCH": "2025-12-10T06:13:19.132608", "MEAN_MOTION": 1.70475655, "ECCENTRICITY": 0.0006121, "INCLINATION": 57.2306, "RA_OF_ASC_NODE": 346.8886, "ARG_OF_PERICENTER": 283.3707, "MEAN_ANOMALY": 76.5775, "EPHEMERIS_TYPE": 0, "CLASSIFICATION_TYPE": "U", "NORAD_CAT_ID": 43567, "ELEMENT_SET_NO": 999, "REV_AT_EPOCH": 4595, "BSTAR": 0, "MEAN_MOTION_DOT": -8.7e-07, "MEAN_MOTION_DDOT": 0}, "tle": {"line1": "1 43567U 18060D   25344.25924922 -.00000087  00000+0  00000+0 0  9997", "line2": "2 43567  57.2306 346.8886 0006121 283.3707  76.5775  1.70475655 45953"}}, "geometry": {"type": "Point", "coordinates": [-166.68801659075726, -34.663694746649256]}}, {"type": "Feature", "properties": {"norad_id": 49809, "name": "GSAT0223 (GALILEO 27)", "group": "galileo", "lat": -37.64561738641867, "lon": -43.05512734806082, "alt_km": 23220.077202641034, "timestamp": "2025-12-11T05:00:26.571894+00:00", "meta": {"OBJECT_NAME": "GSAT0223 (GALILEO 27)", "OBJECT_ID": "2021-116A", "EPOCH": "2025-12-10T02:39:25.687008", "MEAN_MOTION": 1.70475768, "ECCENTRICITY": 0.000463, "INCLINATION": 57.2198, "RA_OF_ASC_NODE": 346.7831, "ARG_OF_PERICENTER": 251.6037, "MEAN_ANOMALY": 107.9349, "EPHEMERIS_TYPE": 0, "CLASSIFICATION_TYPE": "U", "NORAD_CAT_ID": 49809, "ELEMENT_SET_NO": 999, "REV_AT_EPOCH": 2495, "BSTAR": 0, "MEAN_MOTION_DOT": -8.7e-07, "MEAN_MOTION_DDOT": 0}, "tle": {"line1": "1 49809U 21116A   25344.11071397 -.00000087  00000+0  00000+0 0  9992", "line2": "2 49809  57.2198 346.7831 0004630 251.6037 107.9349  1.70475768 24951"}}, "geometry": {"type": "Point", "coordinates": [-43.05512734806082, -37.64561738641867]}}, {"type": "Feature", "properties": {"norad_id": 49810, "name": "GSAT0224 (GALILEO 28)", "group": "galileo", "lat": 50.14512951938522, "lon": 37.27693520941773, "alt_km": 23227.560869335295, "timestamp": "2025-12-11T05:00:26.571905+00:00", "meta": {"OBJECT_NAME": "GSAT0224 (GALILEO 28)", "OBJECT_ID": "2021-116B", "EPOCH": "2025-12-10T19:26:19.690368", "MEAN_MOTION": 1.70475895, "ECCENTRICITY": 0.00039297, "INCLINATION": 57.2205, "RA_OF_ASC_NODE": 346.7629, "ARG_OF_PERICENTER": 256.2791, "MEAN_ANOMALY": 284.9883, "EPHEMERIS_TYPE": 0, "CLASSIFICATION_TYPE": "U", "NORAD_CAT_ID": 49810, "ELEMENT_SET_NO": 999, "REV_AT_EPOCH": 2499, "BSTAR": 0, "MEAN_MOTION_DOT": -8.7e-07, "MEAN_MOTION_DDOT": 0}, "tle": {"line1": "1 49810U 21116B   25344.80995012 -.00000087  00000+0  00000+0 0  9999", "line2": "2 49810  57.2205 346.7629 0003929 256.2791 284.9883  1.70475895 24999"}}, "geometry": {"type": "Point", "coordinates": [37.27693520941773, 50.14512951938522]}}, {"type": "Feature", "properties": {"norad_id": 59598, "name": "GSAT0225 (GALILEO 29)", "group": "galileo", "lat": 44.273647455997995, "lon": 149.36304449359088, "alt_km": 23219.597795088597, "timestamp": "2025-12-11T05:00:26.571917+00:00", "meta": {"OBJECT_NAME": "GSAT0225 (GALILEO 29)", "OBJECT_ID": "2024-079A", "EPOCH": "2025-12-10T12:47:07.958400", "MEAN_MOTION": 1.70474727, "ECCENTRICITY": 0.00020453, "INCLINATION": 55.0006, "RA_OF_ASC_NODE": 106.3566, "ARG_OF_PERICENTER": 176.2356, "MEAN_ANOMALY": 187.363, "EPHEMERIS_TYPE": 0, "CLASSIFICATION_TYPE": "U", "NORAD_CAT_ID": 59598, "ELEMENT_SET_NO": 999, "REV_AT_EPOCH": 1010, "BSTAR": 0, "MEAN_MOTION_DOT": 1e-07, "MEAN_MOTION_DDOT": 0}, "tle": {"line1": "1 59598U 24079A   25344.53273100  .00000010  00000+0  00000+0 0  9996", "line2": "2 59598  55.0006 106.3566 0002045 176.2356 187.3630  1.70474727 10101"}}, "geometry": {"type": "Point", "coordinates": [149.36304449359088, 44.273647455997995]}}, {"type": "Feature", "properties": {"norad_id": 59600, "name": "GSAT0227 (GALILEO 30)", "group": "galileo", "lat": -41.562625426594664, "lon": 67.95389026876528, "alt_km": 23236.451657812966, "timestamp": "2025-12-11T05:00:26.571933+00:00", "meta": {"OBJECT_NAME": "GSAT0227 (GALILEO 30)", "OBJECT_ID": "2024-079C", "EPOCH": "2025-12-08T22:48:42.234912", "MEAN_MOTION": 1.70474719, "ECCENTRICITY": 0.0003262, "INCLINATION": 54.9946, "RA_OF_ASC_NODE": 106.4003, "ARG_OF_PERICENTER": 114.182, "MEAN_ANOMALY": 245.816, "EPHEMERIS_TYPE": 0, "CLASSIFICATION_TYPE": "U", "NORAD_CAT_ID": 59600, "ELEMENT_SET_NO": 999, "REV_AT_EPOCH": 1012, "BSTAR": 0, "MEAN_MOTION_DOT": 9e-08, "MEAN_MOTION_DDOT": 0}, "tle": {"line1": "1 59600U 24079C   25342.95048883  .00000009  00000+0  00000+0 0  9990", "line2": "2 59600  54.9946 106.4003 0003262 114.1820 245.8160  1.70474719 10123"}}, "geometry": {"type": "Point", "coordinates": [67.95389026876528, -41.562625426594664]}}, {"type": "Feature", "properties": {"norad_id": 61182, "name": "GSAT0232 (GALILEO 32)", "group": "galileo", "lat": 31.605583549888582, "lon": 21.208854220055517, "alt_km": 23216.49975278134, "timestamp": "2025-12-11T05:00:26.571944+00:00", "meta": {"OBJECT_NAME": "GSAT0232 (GALILEO 32)", "OBJECT_ID": "2024-167A", "EPOCH": "2025-12-10T16:21:03.753216", "MEAN_MOTION": 1.70473375, "ECCENTRICITY": 0.00019436, "INCLINATION": 55.2414, "RA_OF_ASC_NODE": 226.4872, "ARG_OF_PERICENTER": 211.0668, "MEAN_ANOMALY": 325.7159, "EPHEMERIS_TYPE": 0, "CLASSIFICATION_TYPE": "U", "NORAD_CAT_ID": 61182, "ELEMENT_SET_NO": 999, "REV_AT_EPOCH": 766, "BSTAR": 0, "MEAN_MOTION_DOT": 9e-08, "MEAN_MOTION_DDOT": 0}, "tle": {"line1": "1 61182U 24167A   25344.68129344  .00000009  00000+0  00000+0 0  9990", "line2": "2 61182  55.2414 226.4872 0001943 211.0668 325.7159  1.70473375  7661"}}, "geometry": {"type": "Point", "coordinates": [21.208854220055517, 31.605583549888582]}}]}